[
  {
    "COMMENT": "GENERATED VIA SPACETRACK.ORG API",
    "ORIGINATOR": "18 SPCS",
    "NORAD_CAT_ID": "48621",
    "OBJECT_NAME": "HAIYANG 2D",
    "OBJECT_TYPE": "PAYLOAD",
    "CLASSIFICATION_TYPE": "U",
    "INTLDES": "21043A",
    "EPOCH": "2023-06-06 21:25:53",
    "EPOCH_MICROSECONDS": "194656",
    "MEAN_MOTION": "13.83372428",
    "ECCENTRICITY": "0.0008601",
    "INCLINATION": "65.9958",
    "RA_OF_ASC_NODE": "178.9893",
    "ARG_OF_PERICENTER": "259.7977",
    "MEAN_ANOMALY": "100.2121",
    "EPHEMERIS_TYPE": "0",
    "ELEMENT_SET_NO": "999",
    "REV_AT_EPOCH": "10352",
    "BSTAR": "0.000052601",
    "MEAN_MOTION_DOT": "-0.00000023",
    "MEAN_MOTION_DDOT": "0",
    "FILE": "3926571",
    "TLE_LINE0": "0 HAIYANG 2D",
    "TLE_LINE1": "1 48621U 21043A   23157.89297679 -.00000023  00000-0  52601-4 0  9990",
    "TLE_LINE2": "2 48621  65.9958 178.9893 0008601 259.7977 100.2121 13.83372428103520",
    "OBJECT_ID": "2021-043A",
    "OBJECT_NUMBER": "48621",
    "SEMIMAJOR_AXIS": "7330.086",
    "PERIOD": "104.093",
    "APOGEE": "958.256",
    "PERIGEE": "945.647",
    "DECAYED": "0"
  },
  {
    "COMMENT": "GENERATED VIA SPACETRACK.ORG API",
    "ORIGINATOR": "18 SPCS",
    "NORAD_CAT_ID": "48621",
    "OBJECT_NAME": "HAIYANG 2D",
    "OBJECT_TYPE": "PAYLOAD",
    "CLASSIFICATION_TYPE": "U",
    "INTLDES": "21043A",
    "EPOCH": "2023-06-07 04:22:18",
    "EPOCH_MICROSECONDS": "291360",
    "MEAN_MOTION": "13.83372457",
    "ECCENTRICITY": "0.0008597",
    "INCLINATION": "65.9957",
    "RA_OF_ASC_NODE": "178.2693",
    "ARG_OF_PERICENTER": "259.7831",
    "MEAN_ANOMALY": "100.2268",
    "EPHEMERIS_TYPE": "0",
    "ELEMENT_SET_NO": "999",
    "REV_AT_EPOCH": "10360",
    "BSTAR": "0.000049134",
    "MEAN_MOTION_DOT": "-0.00000027",
    "MEAN_MOTION_DDOT": "0",
    "FILE": "3926884",
    "TLE_LINE0": "0 HAIYANG 2D",
    "TLE_LINE1": "1 48621U 21043A   23158.18215615 -.00000027  00000-0  49134-4 0  9994",
    "TLE_LINE2": "2 48621  65.9957 178.2693 0008597 259.7831 100.2268 13.83372457103606",
    "OBJECT_ID": "2021-043A",
    "OBJECT_NUMBER": "48621",
    "SEMIMAJOR_AXIS": "7330.086",
    "PERIOD": "104.093",
    "APOGEE": "958.253",
    "PERIGEE": "945.650",
    "DECAYED": "0"
  },
  {
    "COMMENT": "GENERATED VIA SPACETRACK.ORG API",
    "ORIGINATOR": "18 SPCS",
    "NORAD_CAT_ID": "48621",
    "OBJECT_NAME": "HAIYANG 2D",
    "OBJECT_TYPE": "PAYLOAD",
    "CLASSIFICATION_TYPE": "U",
    "INTLDES": "21043A",
    "EPOCH": "2023-06-07 11:18:43",
    "EPOCH_MICROSECONDS": "391520",
    "MEAN_MOTION": "13.83372467",
    "ECCENTRICITY": "0.0008591",
    "INCLINATION": "65.9957",
    "RA_OF_ASC_NODE": "177.5493",
    "ARG_OF_PERICENTER": "259.7937",
    "MEAN_ANOMALY": "100.2163",
    "EPHEMERIS_TYPE": "0",
    "ELEMENT_SET_NO": "999",
    "REV_AT_EPOCH": "10364",
    "BSTAR": "0.000045551",
    "MEAN_MOTION_DOT": "-0.00000031",
    "MEAN_MOTION_DDOT": "0",
    "FILE": "3927118",
    "TLE_LINE0": "0 HAIYANG 2D",
    "TLE_LINE1": "1 48621U 21043A   23158.47133555 -.00000031  00000-0  45551-4 0  9992",
    "TLE_LINE2": "2 48621  65.9957 177.5493 0008591 259.7937 100.2163 13.83372467103646",
    "OBJECT_ID": "2021-043A",
    "OBJECT_NUMBER": "48621",
    "SEMIMAJOR_AXIS": "7330.086",
    "PERIOD": "104.093",
    "APOGEE": "958.249",
    "PERIGEE": "945.654",
    "DECAYED": "0"
  },
  {
    "COMMENT": "GENERATED VIA SPACETRACK.ORG API",
    "ORIGINATOR": "18 SPCS",
    "NORAD_CAT_ID": "48621",
    "OBJECT_NAME": "HAIYANG 2D",
    "OBJECT_TYPE": "PAYLOAD",
    "CLASSIFICATION_TYPE": "U",
    "INTLDES": "21043A",
    "EPOCH": "2023-06-07 14:46:55",
    "EPOCH_MICROSECONDS": "940736",
    "MEAN_MOTION": "13.8337248",
    "ECCENTRICITY": "0.000859",
    "INCLINATION": "65.9957",
    "RA_OF_ASC_NODE": "177.1893",
    "ARG_OF_PERICENTER": "259.8375",
    "MEAN_ANOMALY": "100.1724",
    "EPHEMERIS_TYPE": "0",
    "ELEMENT_SET_NO": "999",
    "REV_AT_EPOCH": "10362",
    "BSTAR": "0.000042366",
    "MEAN_MOTION_DOT": "-0.00000035",
    "MEAN_MOTION_DDOT": "0",
    "FILE": "3927174",
    "TLE_LINE0": "0 HAIYANG 2D",
    "TLE_LINE1": "1 48621U 21043A   23158.61592524 -.00000035  00000-0  42366-4 0  9998",
    "TLE_LINE2": "2 48621  65.9957 177.1893 0008590 259.8375 100.1724 13.83372480103627",
    "OBJECT_ID": "2021-043A",
    "OBJECT_NUMBER": "48621",
    "SEMIMAJOR_AXIS": "7330.086",
    "PERIOD": "104.093",
    "APOGEE": "958.248",
    "PERIGEE": "945.655",
    "DECAYED": "0"
  },
  {
    "COMMENT": "GENERATED VIA SPACETRACK.ORG API",
    "ORIGINATOR": "18 SPCS",
    "NORAD_CAT_ID": "48621",
    "OBJECT_NAME": "HAIYANG 2D",
    "OBJECT_TYPE": "PAYLOAD",
    "CLASSIFICATION_TYPE": "U",
    "INTLDES": "21043A",
    "EPOCH": "2023-06-07 18:15:08",
    "EPOCH_MICROSECONDS": "489088",
    "MEAN_MOTION": "13.83372498",
    "ECCENTRICITY": "0.0008587",
    "INCLINATION": "65.9957",
    "RA_OF_ASC_NODE": "176.8294",
    "ARG_OF_PERICENTER": "259.8692",
    "MEAN_ANOMALY": "100.1408",
    "EPHEMERIS_TYPE": "0",
    "ELEMENT_SET_NO": "999",
    "REV_AT_EPOCH": "10368",
    "BSTAR": "0.000042169",
    "MEAN_MOTION_DOT": "-0.00000035",
    "MEAN_MOTION_DDOT": "0",
    "FILE": "3927377",
    "TLE_LINE0": "0 HAIYANG 2D",
    "TLE_LINE1": "1 48621U 21043A   23158.76051492 -.00000035  00000-0  42169-4 0  9999",
    "TLE_LINE2": "2 48621  65.9957 176.8294 0008587 259.8692 100.1408 13.83372498103680",
    "OBJECT_ID": "2021-043A",
    "OBJECT_NUMBER": "48621",
    "SEMIMAJOR_AXIS": "7330.086",
    "PERIOD": "104.093",
    "APOGEE": "958.246",
    "PERIGEE": "945.657",
    "DECAYED": "0"
  },
  {
    "COMMENT": "GENERATED VIA SPACETRACK.ORG API",
    "ORIGINATOR": "18 SPCS",
    "NORAD_CAT_ID": "48621",
    "OBJECT_NAME": "HAIYANG 2D",
    "OBJECT_TYPE": "PAYLOAD",
    "CLASSIFICATION_TYPE": "U",
    "INTLDES": "21043A",
    "EPOCH": "2023-06-07 21:43:21",
    "EPOCH_MICROSECONDS": "38304",
    "MEAN_MOTION": "13.83372508",
    "ECCENTRICITY": "0.0008585",
    "INCLINATION": "65.9957",
    "RA_OF_ASC_NODE": "176.4694",
    "ARG_OF_PERICENTER": "259.8501",
    "MEAN_ANOMALY": "100.1599",
    "EPHEMERIS_TYPE": "0",
    "ELEMENT_SET_NO": "999",
    "REV_AT_EPOCH": "10366",
    "BSTAR": "0.00003902",
    "MEAN_MOTION_DOT": "-0.00000038",
    "MEAN_MOTION_DDOT": "0",
    "FILE": "3927436",
    "TLE_LINE0": "0 HAIYANG 2D",
    "TLE_LINE1": "1 48621U 21043A   23158.90510461 -.00000038  00000-0  39020-4 0  9996",
    "TLE_LINE2": "2 48621  65.9957 176.4694 0008585 259.8501 100.1599 13.83372508103668",
    "OBJECT_ID": "2021-043A",
    "OBJECT_NUMBER": "48621",
    "SEMIMAJOR_AXIS": "7330.086",
    "PERIOD": "104.093",
    "APOGEE": "958.244",
    "PERIGEE": "945.658",
    "DECAYED": "0"
  },
  {
    "COMMENT": "GENERATED VIA SPACETRACK.ORG API",
    "ORIGINATOR": "18 SPCS",
    "NORAD_CAT_ID": "48621",
    "OBJECT_NAME": "HAIYANG 2D",
    "OBJECT_TYPE": "PAYLOAD",
    "CLASSIFICATION_TYPE": "U",
    "INTLDES": "21043A",
    "EPOCH": "2023-06-08 02:55:39",
    "EPOCH_MICROSECONDS": "858240",
    "MEAN_MOTION": "13.83372521",
    "ECCENTRICITY": "0.0008583",
    "INCLINATION": "65.9956",
    "RA_OF_ASC_NODE": "175.9294",
    "ARG_OF_PERICENTER": "259.8343",
    "MEAN_ANOMALY": "100.1757",
    "EPHEMERIS_TYPE": "0",
    "ELEMENT_SET_NO": "999",
    "REV_AT_EPOCH": "10373",
    "BSTAR": "0.000034668",
    "MEAN_MOTION_DOT": "-0.00000043",
    "MEAN_MOTION_DDOT": "0",
    "FILE": "3927691",
    "TLE_LINE0": "0 HAIYANG 2D",
    "TLE_LINE1": "1 48621U 21043A   23159.12198910 -.00000043  00000-0  34668-4 0  9991",
    "TLE_LINE2": "2 48621  65.9956 175.9294 0008583 259.8343 100.1757 13.83372521103738",
    "OBJECT_ID": "2021-043A",
    "OBJECT_NUMBER": "48621",
    "SEMIMAJOR_AXIS": "7330.086",
    "PERIOD": "104.093",
    "APOGEE": "958.243",
    "PERIGEE": "945.660",
    "DECAYED": "0"
  },
  {
    "COMMENT": "GENERATED VIA SPACETRACK.ORG API",
    "ORIGINATOR": "18 SPCS",
    "NORAD_CAT_ID": "48621",
    "OBJECT_NAME": "HAIYANG 2D",
    "OBJECT_TYPE": "PAYLOAD",
    "CLASSIFICATION_TYPE": "U",
    "INTLDES": "21043A",
    "EPOCH": "2023-06-08 09:52:04",
    "EPOCH_MICROSECONDS": "956672",
    "MEAN_MOTION": "13.8337257",
    "ECCENTRICITY": "0.0008579",
    "INCLINATION": "65.9956",
    "RA_OF_ASC_NODE": "175.2095",
    "ARG_OF_PERICENTER": "259.886",
    "MEAN_ANOMALY": "100.1241",
    "EPHEMERIS_TYPE": "0",
    "ELEMENT_SET_NO": "999",
    "REV_AT_EPOCH": "10377",
    "BSTAR": "0.000043684",
    "MEAN_MOTION_DOT": "-0.00000033",
    "MEAN_MOTION_DDOT": "0",
    "FILE": "3927946",
    "TLE_LINE0": "0 HAIYANG 2D",
    "TLE_LINE1": "1 48621U 21043A   23159.41116848 -.00000033  00000-0  43684-4 0  9990",
    "TLE_LINE2": "2 48621  65.9956 175.2095 0008579 259.8860 100.1241 13.83372570103775",
    "OBJECT_ID": "2021-043A",
    "OBJECT_NUMBER": "48621",
    "SEMIMAJOR_AXIS": "7330.086",
    "PERIOD": "104.093",
    "APOGEE": "958.239",
    "PERIGEE": "945.662",
    "DECAYED": "0"
  }
]